FENGYUN 3C              
1 39260U 13052A   22291.72116750  .00000118  00000+0  80608-4 0  9991
2 39260  98.4472 313.5537 0009959 281.2797  78.7252 14.15951487469365
METEOR-M 2              
1 40069U 14037A   22291.71148406  .00000034  00000+0  35015-4 0  9995
2 40069  98.4302 303.8829 0005213 335.9618  24.1307 14.20722541429365
HIMAWARI-8              
1 40267U 14060A   22291.56362839 -.00000275  00000+0  00000+0 0  9991
2 40267   0.0209 166.8571 0001361  72.0413 131.7109  1.00270015 29452
FENGYUN 2G              
1 40367U 14090A   22291.35103770 -.00000299  00000+0  00000+0 0  9995
2 40367   2.2396  88.1739 0003047 200.7051 323.8859  1.00266109 28585
METEOSAT-11 (MSG-4)     
1 40732U 15034A   22291.40674684 -.00000001  00000+0  00000+0 0  9994
2 40732   0.5573  74.4258 0000518  76.7328  22.1942  1.00278657 26605
ELEKTRO-L 2             
1 41105U 15074A   22291.33369775 -.00000112  00000+0  00000+0 0  9990
2 41105   3.2922  86.6525 0002928 126.1399 279.7250  1.00272492 25102
HIMAWARI-9              
1 41836U 16064A   22291.80539442 -.00000273  00000+0  00000+0 0  9991
2 41836   0.0379  53.2912 0000768 179.1992 225.5013  1.00273181 21895
GOES 16                 
1 41866U 16071A   22291.46510875 -.00000248  00000+0  00000+0 0  9995
2 41866   0.0631 281.3174 0000888 336.4968 221.3908  1.00272414 21690
FENGYUN 4A              
1 41882U 16077A   22291.90817317 -.00000329  00000+0  00000+0 0  9999
2 41882   0.1740 286.6587 0004309 115.9097  56.3481  1.00277814 21579
CYGFM05                 
1 41884U 16078A   22291.34301310  .00004030  00000+0  20015-3 0  9995
2 41884  34.9548 156.1319 0013519 113.2714 246.9422 15.17051389323450
CYGFM04                 
1 41885U 16078B   22291.28559316  .00003607  00000+0  17661-3 0  9992
2 41885  34.9478 145.0254 0012121 132.6428 227.5307 15.17595756323495
CYGFM02                 
1 41886U 16078C   22291.01017971  .00004287  00000+0  20932-3 0  9990
2 41886  34.9572 148.9931 0012724 122.9195 237.2743 15.17634527323534
CYGFM01                 
1 41887U 16078D   22291.75563870  .00003986  00000+0  19906-3 0  9990
2 41887  34.9517 156.1502 0013982 116.5171 243.6976 15.16857258323580
CYGFM08                 
1 41888U 16078E   22291.76743932  .00003988  00000+0  19645-3 0  9993
2 41888  34.9484 148.1402 0013224 130.1826 230.0046 15.17341489323631
CYGFM06                 
1 41889U 16078F   22290.98924548  .00004591  00000+0  22401-3 0  9996
2 41889  34.9566 147.7815 0011692 122.7517 237.4324 15.17649541323479
CYGFM07                 
1 41890U 16078G   22291.30800728  .00004121  00000+0  20166-3 0  9993
2 41890  34.9503 144.6509 0011605 130.7945 229.3775 15.17581841323508
CYGFM03                 
1 41891U 16078H   22291.76716872  .00004294  00000+0  21004-3 0  9993
2 41891  34.9535 142.2884 0011141 133.0359 227.1288 15.17589802323717
FENGYUN 3D              
1 43010U 17072A   22291.72879660  .00000160  00000+0  97739-4 0  9991
2 43010  98.8268 235.7740 0000873 273.9236  86.1841 14.19232815255252
NOAA 20                 
1 43013U 17073A   22291.78267215  .00000086  00000+0  61624-4 0  9999
2 43013  98.7249 228.4439 0001627  77.6497 282.4861 14.19551697254729
GOES 17                 
1 43226U 18022A   22291.48166039  .00000099  00000+0  00000+0 0  9999
2 43226   0.0697 280.4037 0000464 318.3350 184.2916  1.00272192 17027
FENGYUN 2H              
1 43491U 18050A   22291.74761532 -.00000125  00000+0  00000+0 0  9993
2 43491   1.4549  94.7560 0003595  71.7624 208.9636  1.00272596 16100
METOP-C                 
1 43689U 18087A   22291.76034116  .00000101  00000+0  66232-4 0  9992
2 43689  98.7201 349.7433 0003919  54.2173 305.9368 14.21477659204822
GEO-KOMPSAT-2A          
1 43823U 18100A   22291.29044635 -.00000343  00000+0  00000+0 0  9998
2 43823   0.0505  52.7729 0001034  91.1521 115.6829  1.00271376 14207
METEOR-M2 2             
1 44387U 19038A   22291.77155390  .00000063  00000+0  46998-4 0  9998
2 44387  98.7383 251.6456 0000421 330.6404  29.4751 14.23725499170958
FENGYUN 3E              
1 49008U 21062A   22291.77404844  .00000012  00000+0  26186-4 0  9995
2 49008  98.7168 291.8168 0002053  26.8149 333.3127 14.19742083 66819
GOES 18                 
1 51850U 22021A   22291.59625816  .00000097  00000+0  00000+0 0  9998
2 51850   0.0451  48.0258 0002683 180.0859 236.6583  1.00272474  2392
STARLINK-4749           
1 53818U 22114A   22291.91667824  .00002209  00000+0  20150-4 0  9998
2 53818  53.2175 110.9746 0001074 100.5397 299.3925 15.73202758  5278
STARLINK-4738           
1 53819U 22114B   22291.91667824  .00002351  00000+0  21162-4 0  9991
2 53819  53.2175 110.9678 0001214  66.4457 336.4670 15.73202684  5274
STARLINK-4758           
1 53820U 22114C   22291.91667824  .00002237  00000+0  20346-4 0  9999
2 53820  53.2175 110.9735 0001050 100.4329 300.0953 15.73202744  5273
STARLINK-4752           
1 53821U 22114D   22291.91667824  .00002258  00000+0  20497-4 0  9990
2 53821  53.2175 110.9672 0001109  88.9393 312.1425 15.73202732  5275
STARLINK-4748           
1 53823U 22114F   22291.91667824  .00004422  00000+0  35910-4 0  9993
2 53823  53.2176 109.4208 0002041  54.5158  22.6017 15.73201648  5297
STARLINK-4757           
1 53824U 22114G   22291.91667824  .00002365  00000+0  21263-4 0  9994
2 53824  53.2176 110.9664 0001399  73.5585 330.5465 15.73202676  5279
STARLINK-4751           
1 53825U 22114H   22291.91667824  .00002354  00000+0  21182-4 0  9993
2 53825  53.2175 110.9670 0001213  79.3573 324.1515 15.73202683  5275
STARLINK-4756           
1 53826U 22114J   22291.58334491 -.00050794  00000+0 -35948-3 0  9995
2 53826  53.2140 112.6076 0001172 117.5311 200.0482 15.73213073  5221
STARLINK-4764           
1 53827U 22114K   22291.91667824  .00002433  00000+0  21749-4 0  9992
2 53827  53.2176 110.9647 0001568  51.4887 353.2123 15.73202640  5275
STARLINK-4760           
1 53828U 22114L   22291.91667824  .00002442  00000+0  21813-4 0  9995
2 53828  53.2176 110.9604 0001528  93.4670 313.6185 15.73202638  5276
STARLINK-4759           
1 53829U 22114M   22291.58334491 -.00064008  00000+0 -45478-3 0  9990
2 53829  53.2148 112.6144 0001395  58.5462 257.7831 15.73216912  1303
STARLINK-4761           
1 53830U 22114N   22291.91667824  .00002541  00000+0  22510-4 0  9993
2 53830  53.2176 110.9580 0001276  84.2753 324.0025 15.73202589  5276
STARLINK-4649           
1 53831U 22114P   22291.58334491  .00037238  00000+0  26887-3 0  9999
2 53831  53.2139 112.6087 0000899  95.4861 221.4890 15.73172869  5223
STARLINK-4747           
1 53832U 22114Q   22291.91667824  .00002603  00000+0  22951-4 0  9993
2 53832  53.2176 110.9557 0001206  82.9259 326.5440 15.73202558  5275
STARLINK-4771           
1 53833U 22114R   22291.91667824  .00002508  00000+0  22280-4 0  9993
2 53833  53.2176 110.9589 0001234  94.5539 313.1277 15.73202606  5276
STARLINK-4737           
1 53834U 22114S   22291.91667824  .00002530  00000+0  22439-4 0  9995
2 53834  53.2176 110.9534 0001854 116.4875 294.1746 15.73202595  5278
STARLINK-4783           
1 53835U 22114T   22291.91667824  .00002575  00000+0  22753-4 0  9994
2 53835  53.2176 110.9566 0001235  82.1673 326.7065 15.73202572  5273
STARLINK-4778           
1 53836U 22114U   22291.91667824  .00002722  00000+0  23798-4 0  9999
2 53836  53.2176 110.9510 0001085  81.4988 330.3556 15.73202499  5271
STARLINK-4776           
1 53837U 22114V   22291.91667824  .00002641  00000+0  23226-4 0  9996
2 53837  53.2176 110.9542 0001053  87.6406 322.4255 15.73202539  5278
STARLINK-4773           
1 53838U 22114W   22291.91667824  .00002774  00000+0  24168-4 0  9990
2 53838  53.2176 110.9500 0000964  73.2797 339.1708 15.73202473  5272
STARLINK-4784           
1 53839U 22114X   22291.91667824  .00002644  00000+0  23252-4 0  9990
2 53839  53.2176 110.9518 0001542  79.5168 331.7415 15.73202535  5278
STARLINK-4766           
1 53840U 22114Y   22291.91667824  .00002786  00000+0  24255-4 0  9993
2 53840  53.2176 110.9464 0001175 100.1922 314.0467 15.73202467  5276
STARLINK-4750           
1 53841U 22114Z   22291.91667824  .00002727  00000+0  23840-4 0  9998
2 53841  53.2176 110.9483 0001389  85.8689 327.1777 15.73202495  5274
STARLINK-4754           
1 53842U 22114AA  22291.91667824  .00002825  00000+0  24538-4 0  9993
2 53842  53.2176 110.9440 0001502  81.6864 333.7447 15.73202446  5277
STARLINK-4769           
1 53843U 22114AB  22291.91667824  .00002724  00000+0  23817-4 0  9991
2 53843  53.2176 110.9472 0001641  84.6824 328.9603 15.73202496  5271
STARLINK-4745           
1 53844U 22114AC  22291.91667824  .00002899  00000+0  25064-4 0  9991
2 53844  53.2176 110.9416 0001254  84.5684 332.0550 15.73202410  5276
STARLINK-4753           
1 53845U 22114AD  22291.91667824  .00002826  00000+0  24541-4 0  9991
2 53845  53.2176 110.9448 0001348  78.0118 336.8231 15.73202446  5273
STARLINK-4746           
1 53846U 22114AE  22291.91667824  .00002955  00000+0  25458-4 0  9993
2 53846  53.2176 110.9391 0001023 101.5429 316.2727 15.73202384  5271
STARLINK-4777           
1 53847U 22114AF  22291.91667824  .00002875  00000+0  24891-4 0  9995
2 53847  53.2176 110.9424 0001375  77.7331 338.2941 15.73202421  5279
STARLINK-4780           
1 53848U 22114AG  22291.91667824  .00003014  00000+0  25877-4 0  9997
2 53848  53.2176 110.9368 0001054  91.0905 327.9173 15.73202354  5274
STARLINK-4770           
1 53849U 22114AH  22291.91667824  .00002921  00000+0  25221-4 0  9997
2 53849  53.2176 110.9400 0001155  93.8878 323.3317 15.73202400  5275
STARLINK-4767           
1 53850U 22114AJ  22291.91667824  .00003043  00000+0  26089-4 0  9998
2 53850  53.2176 110.9332 0001588  83.7436 337.0525 15.73202338  5272
STARLINK-4755           
1 53851U 22114AK  22291.91667824  .00002936  00000+0  25328-4 0  9994
2 53851  53.2176 110.9378 0001382  97.5321 320.8795 15.73202392  5270
